*******************************************************************************
JPL/HORIZONS               3992 Wagner (1987 SA7)          2023-Sep-04 11:26:40
Rec #:    3992 (+COV) Soln.date: 2023-Aug-23_15:14:03   # obs: 4109 (1953-2023)
 
IAU76/J2000 helio. ecliptic osc. elements (au, days, deg., period=Julian yrs):
 
  EPOCH=  2457857.5 ! 2017-Apr-14.00 (TDB)         Residual RMS= .24018
   EC= .07887776273653604  QR= 2.781439216405628   TP= 2458339.6697738278
   OM= 168.8161183863708   W=  156.8860112461958   IN= 10.42171470937486
   A= 3.019620093711913    MA= 269.4318293252807   ADIST= 3.257800971018197
   PER= 5.24731            N= .187834608           ANGMOM= .029799045
   DAN= 3.23556            DDN= 2.79786            L= 326.0442623
   B= 4.0720708            MOID= 1.77423           TP= 2018-Aug-09.1697738278
 
Asteroid physical parameters (km, seconds, rotational period in hours):
   GM= n.a.                RAD= 8.5655             ROTPER= 20.628
   H= 11.62                G= .150                 B-V= n.a.
                           ALBEDO= .166            STYP= n.a.

ASTEROID comments: 
1: soln ref.= JPL#61, OCC=0
2: source=ORB
*******************************************************************************


*******************************************************************************
Ephemeris / API_USER Mon Sep  4 11:26:41 2023 Pasadena, USA      / Horizons
*******************************************************************************
Target body name: 3992 Wagner (1987 SA7)          {source: JPL#61}
Center body name: Solar System Barycenter (0)     {source: DE441}
Center-site name: BODY CENTER
*******************************************************************************
Start time      : A.D. 2023-Aug-12 00:00:00.0000 TDB
Stop  time      : A.D. 2023-Aug-13 00:00:00.0000 TDB
Step-size       : 2880 minutes
*******************************************************************************
Center geodetic : 0.0, 0.0, 0.0                   {E-lon(deg),Lat(deg),Alt(km)}
Center cylindric: 0.0, 0.0, 0.0                   {E-lon(deg),Dxy(km),Dz(km)}
Center radii    : (undefined)
Small perturbers: Yes                             {source: SB441-N16}
Output units    : KM-S
Calendar mode   : Mixed Julian/Gregorian
Output type     : GEOMETRIC cartesian states
Output format   : 2 (position and velocity)
Reference frame : Ecliptic of J2000.0
*******************************************************************************
Initial IAU76/J2000 heliocentric ecliptic osculating elements (au, days, deg.):
  EPOCH=  2457857.5 ! 2017-Apr-14.00 (TDB)         Residual RMS= .24018        
   EC= .07887776273653604  QR= 2.781439216405628   TP= 2458339.6697738278      
   OM= 168.8161183863708   W=  156.8860112461958   IN= 10.42171470937486       
  Equivalent ICRF heliocentric cartesian coordinates (au, au/d):
   X=-2.098625600886262E+00  Y=-2.157728938900062E+00  Z=-4.308589319781887E-01
  VX= 7.616472024726277E-03 VY=-5.984030352904617E-03 VZ=-1.679445117616308E-03
Asteroid physical parameters (km, seconds, rotational period in hours):        
   GM= n.a.                RAD= 8.5655             ROTPER= 20.628              
   H= 11.62                G= .150                 B-V= n.a.                   
                           ALBEDO= .166            STYP= n.a.                  
*******************************************************************************
JDTDB
   X     Y     Z
   VX    VY    VZ
*******************************************************************************
$$SOE
2460168.500000000 = A.D. 2023-Aug-12 00:00:00.0000 TDB 
 X = 2.470711983204459E+08 Y =-3.320961280546657E+08 Z = 5.100612863267244E+07
 VX= 1.455348517479900E+01 VY= 1.110072279141449E+01 VZ=-2.526370417553944E+00
$$EOE
*******************************************************************************
 
TIME

  Barycentric Dynamical Time ("TDB" or T_eph) output was requested. This
continuous coordinate time is equivalent to the relativistic proper time
of a clock at rest in a reference frame co-moving with the solar system
barycenter but outside the system's gravity well. It is the independent
variable in the solar system relativistic equations of motion.

  TDB runs at a uniform rate of one SI second per second and is independent
of irregularities in Earth's rotation.
 
CALENDAR SYSTEM

  Mixed calendar mode was active such that calendar dates after AD 1582-Oct-15
(if any) are in the modern Gregorian system. Dates prior to 1582-Oct-5 (if any)
are in the Julian calendar system, which is automatically extended for dates
prior to its adoption on 45-Jan-1 BC.  The Julian calendar is useful for
matching historical dates. The Gregorian calendar more accurately corresponds
to the Earth's orbital motion and seasons. A "Gregorian-only" calendar mode is
available if such physical events are the primary interest.

REFERENCE FRAME AND COORDINATES

  Ecliptic at the standard reference epoch

    Reference epoch: J2000.0
    X-Y plane: adopted Earth orbital plane at the reference epoch
               Note: IAU76 obliquity of 84381.448 arcseconds wrt ICRF X-Y plane
    X-axis   : ICRF
    Z-axis   : perpendicular to the X-Y plane in the directional (+ or -) sense
               of Earth's north pole at the reference epoch.

  Symbol meaning:

    JDTDB    Julian Day Number, Barycentric Dynamical Time
      X      X-component of position vector (km)
      Y      Y-component of position vector (km)
      Z      Z-component of position vector (km)
      VX     X-component of velocity vector (km/sec)                           
      VY     Y-component of velocity vector (km/sec)                           
      VZ     Z-component of velocity vector (km/sec)                           

ABERRATIONS AND CORRECTIONS

 Geometric state vectors have NO corrections or aberrations applied.

Computations by ...

    Solar System Dynamics Group, Horizons On-Line Ephemeris System
    4800 Oak Grove Drive, Jet Propulsion Laboratory
    Pasadena, CA  91109   USA

    General site: https://ssd.jpl.nasa.gov/
    Mailing list: https://ssd.jpl.nasa.gov/email_list.html
    System news : https://ssd.jpl.nasa.gov/horizons/news.html
    User Guide  : https://ssd.jpl.nasa.gov/horizons/manual.html
    Connect     : browser        https://ssd.jpl.nasa.gov/horizons/app.html#/x
                  API            https://ssd-api.jpl.nasa.gov/doc/horizons.html
                  command-line   telnet ssd.jpl.nasa.gov 6775
                  e-mail/batch   https://ssd.jpl.nasa.gov/ftp/ssd/hrzn_batch.txt
                  scripts        https://ssd.jpl.nasa.gov/ftp/ssd/SCRIPTS
    Author      : Jon.D.Giorgini@jpl.nasa.gov
*******************************************************************************
